PERSEUS-M1              
1 40039U 14033AF  26167.76854751  .00001208  00000+0  11414-3 0  9996
2 40039  97.9641 111.8934 0010343 302.9709  57.0516 14.95629727650571
POLYITAN-1              
1 40042U 14033AJ  26167.79123354  .00015356  00000+0  47987-3 0  9994
2 40042  98.0938 194.0149 0008614 142.4078 217.7766 15.33245199653532
TIGRISAT                
1 40043U 14033AK  26167.37474662  .00001794  00000+0  21114-3 0  9995
2 40043  97.7829 317.4045 0050609  77.8381 282.8497 14.85160382645501
AEROCUBE 6A             
1 40045U 14033AM  26167.42243074  .00004765  00000+0  40127-3 0  9990
2 40045  97.7241 334.3787 0038978  20.7070 339.5721 14.98103799646503
AEROCUBE 6B             
1 40046U 14033AN  26167.42550458  .00004315  00000+0  35055-3 0  9993
2 40046  97.7239 334.1705 0038359  11.9853 348.2274 14.99564253646645
CANX-4                  
1 40055U 14034C   26167.61149139  .00000755  00000+0  10412-3 0  9999
2 40055  98.3123  42.9035 0013211  18.8491 341.3206 14.81263782644447
CANX-5                  
1 40056U 14034D   26167.88013027  .00000763  00000+0  10512-3 0  9995
2 40056  98.3124  43.2255 0013200  18.2211 341.9470 14.81281507635296
UKUBE-1                 
1 40074U 14037F   26167.57325823  .00006564  00000+0  37046-3 0  9990
2 40074  98.4228 170.7806 0002583 133.5977 226.5466 15.13544703648464
BRITE-PL2 (HEWELIUSZ)   
1 40119U 14049B   26167.30201463  .00001445  00000+0  13881-3 0  9991
2 40119  97.9097 279.2951 0015251 111.1081 249.1771 14.94590679641310
AEROCUBE 5C             
1 40965U 15058B   26167.56734601  .00001823  00000+0  16972-3 0  9998
2 40965  64.7678 264.5188 0130707  63.5118 297.9330 14.91451378365561
AEROCUBE 7              
1 40966U 15058C   26167.56544986  .00002637  00000+0  21829-3 0  9995
2 40966  64.7621 246.7636 0120447  61.9442 299.3790 14.95722382365861
FOX-1A (AO-85)          
1 40967U 15058D   26167.68181392  .00001893  00000+0  17791-3 0  9993
2 40967  64.7762 280.5545 0130434  56.7813 304.5723 14.90967641113493
SINOD-D 1               
1 40968U 15058E   26167.61033068  .00002624  00000+0  21697-3 0  9996
2 40968  64.7755 260.7192 0119003  53.3065 307.8913 14.95902944116574
SNAP-3 ALICE            
1 40970U 15058G   26167.53267679  .00098982  00000+0  11858-2 0  9996
2 40970  64.7502 106.1936 0028386  13.2096 346.9786 15.59920827116784
LMRST-SAT               
1 40971U 15058H   26167.56989638  .00001747  00000+0  16643-3 0  9997
2 40971  64.7766 277.2387 0132038  58.8558 302.5425 14.90587532113461
SNAP-3 EDDIE            
1 40972U 15058J   26167.52327195  .00108150  00000+0  12323-2 0  9994
2 40972  64.7428  96.9558 0027876  17.1991 343.0093 15.61204333118926
PROPCUBE 3              
1 40973U 15058K   26167.67392389  .00002185  00000+0  18907-3 0  9994
2 40973  64.7685 254.1395 0124005  60.1147 301.2218 14.94255091114723
BISONSAT                
1 40974U 15058L   26167.63742919  .00009248  00000+0  44993-3 0  9990
2 40974  64.7577 175.4219 0079003  47.4899 313.2863 15.16178088115537
SNAP-3 JIMI             
1 40975U 15058M   26167.52350987  .00003465  00000+0  24428-3 0  9995
2 40975  64.7636 221.8726 0106130  55.6297 305.4803 15.02292927114123
PROPCUBE 1 (FLORA)      
1 40976U 15058N   26167.79287347  .00001860  00000+0  18304-3 0  9997
2 40976  64.7756 296.4578 0130728  61.0768 300.3381 14.89220796116209
SINOD-D 3               
1 40977U 15058P   26167.63858940  .00002614  00000+0  22714-3 0  9992
2 40977  64.7733 277.5322 0119240  58.3455 302.9224 14.94013361114677
HORYU-4                 
1 41340U 16012D   26166.43547623  .00392649  54783-4  97992-3 0  9990
2 41340  30.9849  91.8834 0005149 261.3375  98.6703 15.94546005570538
RAVAN                   
1 41849U 16067B   26167.65748729  .00041884  00000+0  63214-3 0  9999
2 41849  97.9887  57.1683 0004516  33.6993 326.4546 15.54635153527614
CELTEE 1                
1 41850U 16067C   26167.87788003  .00004113  00000+0  19637-3 0  9998
2 41850  98.0669  34.4239 0000917 125.9953 234.1365 15.19680301525835
OPTICUBE 04             
1 41851U 16067D   26167.54893469  .00002026  00000+0  12997-3 0  9999
2 41851  98.0694  19.7994 0016820 117.6470 242.6467 15.09656156525073
AEROCUBE 8D             
1 41852U 16067E   26167.56481058  .00005637  00000+0  23333-3 0  9996
2 41852  98.0677  37.6889 0004668 124.6524 235.5152 15.24390236525974
AEROCUBE 8C             
1 41853U 16067F   26167.58990039  .00006076  00000+0  24932-3 0  9997
2 41853  98.0548  34.9442 0006624  70.6674 289.5277 15.24638799525973
CORVUS BC2              
1 42846U 17042X   26167.39769862  .00003593  00000+0  24808-3 0  9994
2 42846  97.4061 328.7777 0014273 113.0054 247.2680 15.06292307486940
CORVUS BC1              
1 42847U 17042Y   26167.72451012  .00003137  00000+0  21620-3 0  9990
2 42847  97.4099 329.9057 0013320  90.5628 269.7126 15.06464546487024
MAKERSAT 0              
1 43016U 17073D   26167.65743270  .00013708  00000+0  37379-3 0  9998
2 43016  97.4623  50.1724 0105113 274.9015  84.0232 15.32084435466386
